CZ-5 R/B                
1 67227U 25306B   25354.80698343  .00001201  00000+0  48546-3 0  9993
2 67227  16.4229 298.9498 7578822 179.0262 184.9269  1.92163474    23
QPS-SAR-15              
1 67228U 25307A   25359.63475319  .00006008  00000+0  52701-3 0  9995
2 67228  42.0066  99.7194 0010062 294.4282  65.5493 14.97088724   657
ELECTRON KICK STAGE R/B 
1 67229U 25307B   25359.34533491  .00455769  62045-4  14659-2 0  9993
2 67229  42.0009  99.2510 0243047 265.5143  91.7904 15.56484039   639
ELECTRON R/B            
1 67230U 25307C   25355.36249005  .00071881  81069-5  20248-3 0  9997
2 67230  41.9820 123.1026 0261408 268.1410  88.9482 15.55087105    19
CZ-12A R/B              
1 67231U 25308A   25359.59446329  .01578408  43819-5  53553-3 0  9990
2 67231  69.7070  56.1878 0022528 149.7372 210.5155 16.24595622   413
